NORAD_CAT_ID,OBJECT_NAME,OBJECT_TYPE,EPOCH,MEAN_MOTION,ECCENTRICITY,INCLINATION,RA_OF_ASC_NODE,ARG_OF_PERICENTER,MEAN_ANOMALY,BSTAR,MEAN_MOTION_DOT,MEAN_MOTION_DDOT,TLE_LINE0,TLE_LINE1,TLE_LINE2,SEMIMAJOR_AXIS,PERIOD,APOGEE,PERIGEE,DECAYED
53924.0,STARLINK-5001,PAYLOAD,2023-06-15 05:38:09,15.08837586,0.0001081,53.2162,111.2608,99.3873,260.7242,6.2294e-05,7.04e-06,0.0,0 STARLINK-5001,1 53924U 22119AQ  23166.23483700  .00000704  00000-0  62294-4 0  9991,2 53924  53.2162 111.2608 0001081  99.3873 260.7242 15.08837586 41168,6917.888,95.438,540.501,539.005,0.0
53924.0,STARLINK-5001,PAYLOAD,2023-06-16 02:18:10,15.08843484,0.0001062,53.2168,107.3939,101.7573,258.3538,3.6158e-05,2.88e-06,0.0,0 STARLINK-5001,1 53924U 22119AQ  23167.09595426  .00000288  00000-0  36158-4 0  9992,2 53924  53.2168 107.3939 0001062 101.7573 258.3538 15.08843484 40873,6917.87,95.437,540.469,539.0,0.0
53924.0,STARLINK-5001,PAYLOAD,2023-06-16 05:28:55,15.08851694,0.0001125,53.2162,106.7993,105.6543,254.4573,0.00012381,1.684e-05,0.0,0 STARLINK-5001,1 53924U 22119AQ  23167.22842572  .00001684  00000-0  12381-3 0  9996,2 53924  53.2162 106.7993 0001125 105.6543 254.4573 15.08851694 40890,6917.845,95.437,540.488,538.931,0.0
53924.0,STARLINK-5001,PAYLOAD,2023-06-16 13:25:51,15.08847061,0.0001246,53.217,105.3111,102.7692,257.3439,5.3713e-05,5.67e-06,0.0,0 STARLINK-5001,1 53924U 22119AQ  23167.55962818  .00000567  00000-0  53713-4 0  9992,2 53924  53.2170 105.3111 0001246 102.7692 257.3439 15.08847061 41362,6917.859,95.437,540.586,538.862,0.0
53924.0,STARLINK-5001,PAYLOAD,2023-06-17 13:16:39,15.08835759,0.0001139,53.2165,100.8527,95.7431,264.3691,-2.9781e-05,-7.62e-06,0.0,0 STARLINK-5001,1 53924U 22119AQ  23168.55323731 -.00000762  00000-0 -29781-4 0  9995,2 53924  53.2165 100.8527 0001139  95.7431 264.3691 15.08835759 41516,6917.893,95.438,540.546,538.97,0.0
53924.0,STARLINK-5001,PAYLOAD,2023-06-17 19:38:12,15.08833839,0.0001592,53.2164,99.6625,93.709,266.4084,-0.00014962,-2.668e-05,0.0,0 STARLINK-5001,1 53924U 22119AQ  23168.81820573 -.00002668  00000-0 -14962-3 0  9991,2 53924  53.2164  99.6625 0001592  93.7090 266.4084 15.08833839 41551,6917.899,95.438,540.866,538.663,0.0
53924.0,STARLINK-5001,PAYLOAD,2023-06-18 01:59:45,15.08829726,0.0001484,53.2164,98.4735,90.7406,269.3756,-0.0001721,-3.025e-05,0.0,0 STARLINK-5001,1 53924U 22119AQ  23169.08316992 -.00003025  00000-0 -17210-3 0  9993,2 53924  53.2164  98.4735 0001484  90.7406 269.3756 15.08829726 41174,6917.912,95.438,540.803,538.75,0.0
53924.0,STARLINK-5001,PAYLOAD,2023-06-18 05:10:32,15.08827617,0.0001377,53.2162,97.8796,89.1787,270.9363,-0.00017329,-3.044e-05,0.0,0 STARLINK-5001,1 53924U 22119AQ  23169.21565267 -.00003044  00000-0 -17329-3 0  9991,2 53924  53.2162  97.8796 0001377  89.1787 270.9363 15.08827617 41615,6917.918,95.438,540.736,538.831,0.0
53924.0,STARLINK-5001,PAYLOAD,2023-06-18 19:28:59,15.08836384,0.0001137,53.2174,95.2041,89.4585,270.6538,4.7267e-07,-2.8e-06,0.0,0 STARLINK-5001,1 53924U 22119AQ  23169.81180268 -.00000280  00000-0  47267-6 0  9996,2 53924  53.2174  95.2041 0001137  89.4585 270.6538 15.08836384 41281,6917.891,95.438,540.543,538.97,0.0
53924.0,STARLINK-5001,PAYLOAD,2023-06-19 01:50:31,15.0884409,0.000111,53.2166,94.0143,91.1141,268.9978,6.305e-05,7.16e-06,0.0,0 STARLINK-5001,1 53924U 22119AQ  23170.07675654  .00000716  00000-0  63050-4 0  9993,2 53924  53.2166  94.0143 0001110  91.1141 268.9978 15.08844090 41327,6917.868,95.437,540.501,538.965,0.0
53924.0,STARLINK-5001,PAYLOAD,2023-06-20 01:41:18,15.0883863,0.000118,53.2166,89.554,84.0898,276.0229,0.00028297,4.218e-05,0.0,0 STARLINK-5001,1 53924U 22119AQ  23171.07035814  .00004218  00000-0  28297-3 0  9996,2 53924  53.2166  89.5540 0001180  84.0898 276.0229 15.08838630 41472,6917.885,95.438,540.566,538.933,0.0
53924.0,STARLINK-5001,PAYLOAD,2023-06-20 11:13:37,15.08839455,0.0001128,53.2163,87.7676,78.1446,281.9673,0.00022114,3.233e-05,0.0,0 STARLINK-5001,1 53924U 22119AQ  23171.46780077  .00003233  00000-0  22114-3 0  9995,2 53924  53.2163  87.7676 0001128  78.1446 281.9673 15.08839455 41951,6917.882,95.438,540.527,538.967,0.0
53924.0,STARLINK-5001,PAYLOAD,2023-06-20 17:35:10,15.08838983,0.0001555,53.2168,86.5802,88.5583,271.5587,0.00011137,1.485e-05,0.0,0 STARLINK-5001,1 53924U 22119AQ  23171.73276511  .00001485  00000-0  11137-3 0  9998,2 53924  53.2168  86.5802 0001555  88.5583 271.5587 15.08838983 41577,6917.883,95.438,540.824,538.673,0.0
53924.0,STARLINK-5001,PAYLOAD,2023-06-21 11:04:25,15.0883983,0.0001157,53.2165,83.3106,86.9439,273.1685,7.2834e-06,-1.72e-06,0.0,0 STARLINK-5001,1 53924U 22119AQ  23172.46140616 -.00000172  00000-0  72834-5 0  9991,2 53924  53.2165  83.3106 0001157  86.9439 273.1685 15.08839830 42105,6917.881,95.438,540.546,538.946,0.0
53924.0,STARLINK-5001,PAYLOAD,2023-06-22 01:22:53,15.08842349,0.0001234,53.217,80.6337,88.8682,271.2451,-2.519e-05,-6.89e-06,0.0,0 STARLINK-5001,1 53924U 22119AQ  23173.05756654 -.00000689  00000-0 -25190-4 0  9998,2 53924  53.2170  80.6337 0001234  88.8682 271.2451 15.08842349 41775,6917.873,95.437,540.592,538.885,0.0
53924.0,STARLINK-5001,PAYLOAD,2023-06-23 02:49:03,15.08844173,0.0001272,53.2166,75.875,91.8221,268.2916,0.00019941,2.887e-05,0.0,0 STARLINK-5001,1 53924U 22119AQ  23174.11740046  .00002887  00000-0  19941-3 0  9990,2 53924  53.2166  75.8750 0001272  91.8221 268.2916 15.08844173 41937,6917.868,95.437,540.613,538.853,0.0
53924.0,STARLINK-5001,PAYLOAD,2023-06-23 17:07:31,15.08840139,0.0001245,53.2164,73.2007,91.0544,269.059,0.00013979,1.938e-05,0.0,0 STARLINK-5001,1 53924U 22119AQ  23174.71356426  .00001938  00000-0  13979-3 0  9992,2 53924  53.2164  73.2007 0001245  91.0544 269.0590 15.08840139 42028,6917.88,95.438,540.606,538.884,0.0
53924.0,STARLINK-5001,PAYLOAD,2023-06-25 02:30:37,15.08849665,0.0001329,53.2167,66.9524,96.7415,263.3728,0.00010689,1.414e-05,0.0,0 STARLINK-5001,1 53924U 22119AQ  23176.10459981  .00001414  00000-0  10689-3 0  9991,2 53924  53.2167  66.9524 0001329  96.7415 263.3728 15.08849665 42232,6917.851,95.437,540.635,538.796,0.0
53924.0,STARLINK-5001,PAYLOAD,2023-06-25 16:49:06,15.08840048,0.0001312,53.2153,64.2768,104.2075,255.9063,6.2618e-05,7.09e-06,0.0,0 STARLINK-5001,1 53924U 22119AQ  23176.70076474  .00000709  00000-0  62618-4 0  9995,2 53924  53.2153  64.2768 0001312 104.2075 255.9063 15.08840048 42322,6917.88,95.438,540.653,538.838,0.0
53924.0,STARLINK-5001,PAYLOAD,2023-06-26 16:39:53,15.08834084,0.0001287,53.2157,59.8165,98.0251,262.0887,8.0338e-06,-1.6e-06,0.0,0 STARLINK-5001,1 53924U 22119AQ  23177.69436878 -.00000160  00000-0  80338-5 0  9994,2 53924  53.2157  59.8165 0001287  98.0251 262.0887 15.08834084 42476,6917.898,95.438,540.654,538.873,0.0
53924.0,STARLINK-5001,PAYLOAD,2023-06-27 19:41:26,15.08840435,0.0001111,53.2165,54.7623,88.2605,271.8514,0.00012306,1.671e-05,0.0,0 STARLINK-5001,1 53924U 22119AQ  23178.82045025  .00001671  00000-0  12306-3 0  9995,2 53924  53.2165  54.7623 0001111  88.2605 271.8514 15.08840435 42649,6917.879,95.438,540.513,538.975,0.0
53924.0,STARLINK-5001,PAYLOAD,2023-06-28 02:02:59,15.08849441,0.0001122,53.2166,53.5727,86.7026,273.4094,0.00032483,4.887e-05,0.0,0 STARLINK-5001,1 53924U 22119AQ  23179.08540706  .00004887  00000-0  32483-3 0  9990,2 53924  53.2166  53.5727 0001122  86.7026 273.4094 15.08849441 42685,6917.852,95.437,540.493,538.94,0.0
53924.0,STARLINK-5001,PAYLOAD,2023-06-29 01:53:46,15.08842017,0.0001183,53.2165,49.1124,78.3421,281.7704,0.00017228,2.455e-05,0.0,0 STARLINK-5001,1 53924U 22119AQ  23180.07901261  .00002455  00000-0  17228-3 0  9997,2 53924  53.2165  49.1124 0001183  78.3421 281.7704 15.08842017 42838,6917.874,95.437,540.558,538.921,0.0
53924.0,STARLINK-5001,PAYLOAD,2023-07-01 07:56:53,15.0883762,0.0001109,53.2161,39.0013,91.277,268.8349,2.5855e-05,1.24e-06,0.0,0 STARLINK-5001,1 53924U 22119AQ  23182.33117587  .00000124  00000-0  25855-4 0  9995,2 53924  53.2161  39.0013 0001109  91.2770 268.8349 15.08837620 43171,6917.888,95.438,540.52,538.985,0.0
53924.0,STARLINK-5001,PAYLOAD,2023-07-02 14:09:13,15.08843087,0.0001157,53.2169,33.3514,90.0866,270.0259,0.00012034,1.628e-05,0.0,0 STARLINK-5001,1 53924U 22119AQ  23183.58973443  .00001628  00000-0  12034-3 0  9998,2 53924  53.2169  33.3514 0001157  90.0866 270.0259 15.08843087 43368,6917.871,95.437,540.536,538.936,0.0
53924.0,STARLINK-5001,PAYLOAD,2023-07-03 17:10:46,15.08841959,0.0001152,53.2171,28.2959,89.7496,270.3628,0.00013628,1.882e-05,0.0,0 STARLINK-5001,1 53924U 22119AQ  23184.71581369  .00001882  00000-0  13628-3 0  9998,2 53924  53.2171  28.2959 0001152  89.7496 270.3628 15.08841959 43534,6917.874,95.437,540.536,538.942,0.0
53924.0,STARLINK-5001,PAYLOAD,2023-07-04 23:23:05,15.0884329,0.0001043,53.2161,22.6458,90.3554,269.7558,3.6745e-05,2.97e-06,0.0,0 STARLINK-5001,1 53924U 22119AQ  23185.97437312  .00000297  00000-0  36745-4 0  9990,2 53924  53.2161  22.6458 0001043  90.3554 269.7558 15.08843290 43722,6917.87,95.437,540.457,539.014,0.0
53924.0,STARLINK-5001,PAYLOAD,2023-07-05 23:13:53,15.08836076,0.0001073,53.2166,18.1862,93.155,266.9565,1.4119e-05,-6.3e-07,0.0,0 STARLINK-5001,1 53924U 22119AQ  23186.96797937 -.00000063  00000-0  14119-4 0  9995,2 53924  53.2166  18.1862 0001073  93.1550 266.9565 15.08836076 43873,6917.892,95.438,540.5,539.015,0.0
53924.0,STARLINK-5001,PAYLOAD,2023-07-07 05:26:12,15.08843986,0.0001065,53.2168,12.5365,94.5379,265.5735,0.00013866,1.92e-05,0.0,0 STARLINK-5001,1 53924U 22119AQ  23188.22653820  .00001920  00000-0  13866-3 0  9997,2 53924  53.2168  12.5365 0001065  94.5379 265.5735 15.08843986 44060,6917.868,95.437,540.47,538.996,0.0
53924.0,STARLINK-5001,PAYLOAD,2023-07-08 05:17:00,15.08841009,0.000116,53.2175,8.0757,84.431,275.6814,3.682e-05,2.98e-06,0.0,0 STARLINK-5001,1 53924U 22119AQ  23189.22014091  .00000298  00000-0  36820-4 0  9992,2 53924  53.2175   8.0757 0001160  84.4310 275.6814 15.08841009 44213,6917.877,95.437,540.545,538.94,0.0
